[
  {
    "OBJECT_NAME": "STARLINK-35247",
    "OBJECT_ID": "25210A",
    "EPOCH": "2025-11-11T05:29:56.076864",
    "MEAN_MOTION": 15.39739483,
    "ECCENTRICITY": 3.73e-05,
    "INCLINATION": 53.1638,
    "RA_OF_ASC_NODE": 138.0772,
    "ARG_OF_PERICENTER": 325.3577,
    "MEAN_ANOMALY": 34.7404,
    "EPHEMERIS_TYPE": 0,
    "CLASSIFICATION_TYPE": "U",
    "NORAD_CAT_ID": 65622,
    "ELEMENT_SET_NO": 999,
    "REV_AT_EPOCH": 958,
    "BSTAR": 0.0018672,
    "MEAN_MOTION_DOT": 0.00075324,
    "MEAN_MOTION_DDOT": 0.0,
    "TLE_LINE1": "1 65622U 25210A   25315.22912126  .00075324  00000+0  18672-2 0  9998",
    "TLE_LINE2": "2 65622  53.1638 138.0772 0000373 325.3577  34.7404 15.39739483  9588",
    "COMMENT": "Grouped by shell and plane from TLE"
  },
  {
    "OBJECT_NAME": "STARLINK-35239",
    "OBJECT_ID": "25210B",
    "EPOCH": "2025-11-10T22:29:15.506592",
    "MEAN_MOTION": 15.3965878,
    "ECCENTRICITY": 6.46e-05,
    "INCLINATION": 53.1606,
    "RA_OF_ASC_NODE": 139.0913,
    "ARG_OF_PERICENTER": 81.5439,
    "MEAN_ANOMALY": 278.5639,
    "EPHEMERIS_TYPE": 0,
    "CLASSIFICATION_TYPE": "U",
    "NORAD_CAT_ID": 65623,
    "ELEMENT_SET_NO": 999,
    "REV_AT_EPOCH": 954,
    "BSTAR": 0.0017551,
    "MEAN_MOTION_DOT": 0.00070544,
    "MEAN_MOTION_DDOT": 0.0,
    "TLE_LINE1": "1 65623U 25210B   25314.93698503  .00070544  00000+0  17551-2 0  9990",
    "TLE_LINE2": "2 65623  53.1606 139.0913 0000646  81.5439 278.5639 15.39658780  9547",
    "COMMENT": "Grouped by shell and plane from TLE"
  },
  {
    "OBJECT_NAME": "STARLINK-35151",
    "OBJECT_ID": "25210C",
    "EPOCH": "2025-11-11T08:00:03.000384",
    "MEAN_MOTION": 15.30544154,
    "ECCENTRICITY": 5.17e-05,
    "INCLINATION": 53.1606,
    "RA_OF_ASC_NODE": 137.0266,
    "ARG_OF_PERICENTER": 97.7314,
    "MEAN_ANOMALY": 39.8594,
    "EPHEMERIS_TYPE": 0,
    "CLASSIFICATION_TYPE": "U",
    "NORAD_CAT_ID": 65624,
    "ELEMENT_SET_NO": 999,
    "REV_AT_EPOCH": 589,
    "BSTAR": 0.0,
    "MEAN_MOTION_DOT": -0.00545436,
    "MEAN_MOTION_DDOT": 0.0,
    "TLE_LINE1": "1 65624U 25210C   25315.33336806 -.00545436  00000+0 -19579-1 0  9991",
    "TLE_LINE2": "2 65624  53.1606 137.0266 0000517  97.7314  39.8594 15.30544154  5897",
    "COMMENT": "Grouped by shell and plane from TLE"
  },
  {
    "OBJECT_NAME": "STARLINK-35153",
    "OBJECT_ID": "25210D",
    "EPOCH": "2025-11-10T22:22:05.772000",
    "MEAN_MOTION": 15.39642964,
    "ECCENTRICITY": 0.0001232,
    "INCLINATION": 53.1577,
    "RA_OF_ASC_NODE": 139.0593,
    "ARG_OF_PERICENTER": 67.1315,
    "MEAN_ANOMALY": 292.982,
    "EPHEMERIS_TYPE": 0,
    "CLASSIFICATION_TYPE": "U",
    "NORAD_CAT_ID": 65625,
    "ELEMENT_SET_NO": 999,
    "REV_AT_EPOCH": 946,
    "BSTAR": 0.0016205,
    "MEAN_MOTION_DOT": 0.00065024,
    "MEAN_MOTION_DDOT": 0.0,
    "TLE_LINE1": "1 65625U 25210D   25314.93201125  .00065024  00000+0  16205-2 0  9994",
    "TLE_LINE2": "2 65625  53.1577 139.0593 0001232  67.1315 292.9820 15.39642964  9465",
    "COMMENT": "Grouped by shell and plane from TLE"
  },
  {
    "OBJECT_NAME": "STARLINK-35225",
    "OBJECT_ID": "25210E",
    "EPOCH": "2025-11-11T05:09:26.101152",
    "MEAN_MOTION": 15.39635521,
    "ECCENTRICITY": 0.0001354,
    "INCLINATION": 53.1578,
    "RA_OF_ASC_NODE": 137.9835,
    "ARG_OF_PERICENTER": 81.7125,
    "MEAN_ANOMALY": 278.4033,
    "EPHEMERIS_TYPE": 0,
    "CLASSIFICATION_TYPE": "U",
    "NORAD_CAT_ID": 65626,
    "ELEMENT_SET_NO": 999,
    "REV_AT_EPOCH": 958,
    "BSTAR": 0.0021985,
    "MEAN_MOTION_DOT": 0.00088614,
    "MEAN_MOTION_DDOT": 0.0,
    "TLE_LINE1": "1 65626U 25210E   25315.21488543  .00088614  00000+0  21985-2 0  9999",
    "TLE_LINE2": "2 65626  53.1578 137.9835 0001354  81.7125 278.4033 15.39635521  9588",
    "COMMENT": "Grouped by shell and plane from TLE"
  },
  {
    "OBJECT_NAME": "STARLINK-35217",
    "OBJECT_ID": "25210F",
    "EPOCH": "2025-11-11T08:00:03.000384",
    "MEAN_MOTION": 15.32707813,
    "ECCENTRICITY": 0.0001409,
    "INCLINATION": 53.16,
    "RA_OF_ASC_NODE": 137.1116,
    "ARG_OF_PERICENTER": 57.0662,
    "MEAN_ANOMALY": 38.2907,
    "EPHEMERIS_TYPE": 0,
    "CLASSIFICATION_TYPE": "U",
    "NORAD_CAT_ID": 65627,
    "ELEMENT_SET_NO": 999,
    "REV_AT_EPOCH": 594,
    "BSTAR": 0.0,
    "MEAN_MOTION_DOT": -0.02978951,
    "MEAN_MOTION_DDOT": 0.0,
    "TLE_LINE1": "1 65627U 25210F   25315.33336806 -.02978951  00000+0 -10567+0 0  9994",
    "TLE_LINE2": "2 65627  53.1600 137.1116 0001409  57.0662  38.2907 15.32707813  5947",
    "COMMENT": "Grouped by shell and plane from TLE"
  },
  {
    "OBJECT_NAME": "STARLINK-35128",
    "OBJECT_ID": "25210G",
    "EPOCH": "2025-11-11T05:22:48.647424",
    "MEAN_MOTION": 15.39638913,
    "ECCENTRICITY": 0.0001433,
    "INCLINATION": 53.1656,
    "RA_OF_ASC_NODE": 138.0448,
    "ARG_OF_PERICENTER": 89.2055,
    "MEAN_ANOMALY": 270.9114,
    "EPHEMERIS_TYPE": 0,
    "CLASSIFICATION_TYPE": "U",
    "NORAD_CAT_ID": 65628,
    "ELEMENT_SET_NO": 999,
    "REV_AT_EPOCH": 958,
    "BSTAR": 0.0014383000000000002,
    "MEAN_MOTION_DOT": 0.00057604,
    "MEAN_MOTION_DDOT": 0.0,
    "TLE_LINE1": "1 65628U 25210G   25315.22417416  .00057604  00000+0  14383-2 0  9992",
    "TLE_LINE2": "2 65628  53.1656 138.0448 0001433  89.2055 270.9114 15.39638913  9587",
    "COMMENT": "Grouped by shell and plane from TLE"
  },
  {
    "OBJECT_NAME": "STARLINK-35135",
    "OBJECT_ID": "25210H",
    "EPOCH": "2025-11-11T05:16:07.901760",
    "MEAN_MOTION": 15.39646395,
    "ECCENTRICITY": 0.0001955,
    "INCLINATION": 53.159,
    "RA_OF_ASC_NODE": 138.0155,
    "ARG_OF_PERICENTER": 84.6638,
    "MEAN_ANOMALY": 275.459,
    "EPHEMERIS_TYPE": 0,
    "CLASSIFICATION_TYPE": "U",
    "NORAD_CAT_ID": 65629,
    "ELEMENT_SET_NO": 999,
    "REV_AT_EPOCH": 958,
    "BSTAR": 0.0024105,
    "MEAN_MOTION_DOT": 0.00097346,
    "MEAN_MOTION_DDOT": 0.0,
    "TLE_LINE1": "1 65629U 25210H   25315.21953590  .00097346  00000+0  24105-2 0  9990",
    "TLE_LINE2": "2 65629  53.1590 138.0155 0001955  84.6638 275.4590 15.39646395  9586",
    "COMMENT": "Grouped by shell and plane from TLE"
  },
  {
    "OBJECT_NAME": "STARLINK-34877",
    "OBJECT_ID": "25210J",
    "EPOCH": "2025-11-11T04:56:32.632800",
    "MEAN_MOTION": 15.39656854,
    "ECCENTRICITY": 0.0001717,
    "INCLINATION": 53.1584,
    "RA_OF_ASC_NODE": 137.9289,
    "ARG_OF_PERICENTER": 74.2087,
    "MEAN_ANOMALY": 285.9107,
    "EPHEMERIS_TYPE": 0,
    "CLASSIFICATION_TYPE": "U",
    "NORAD_CAT_ID": 65630,
    "ELEMENT_SET_NO": 999,
    "REV_AT_EPOCH": 958,
    "BSTAR": 0.0025707000000000004,
    "MEAN_MOTION_DOT": 0.00103964,
    "MEAN_MOTION_DDOT": 0.0,
    "TLE_LINE1": "1 65630U 25210J   25315.20593325  .00103964  00000+0  25707-2 0  9990",
    "TLE_LINE2": "2 65630  53.1584 137.9289 0001717  74.2087 285.9107 15.39656854  9587",
    "COMMENT": "Grouped by shell and plane from TLE"
  },
  {
    "OBJECT_NAME": "STARLINK-35104",
    "OBJECT_ID": "25210K",
    "EPOCH": "2025-11-10T19:28:59.611584",
    "MEAN_MOTION": 15.39637738,
    "ECCENTRICITY": 0.0001108,
    "INCLINATION": 53.1581,
    "RA_OF_ASC_NODE": 139.7315,
    "ARG_OF_PERICENTER": 75.8848,
    "MEAN_ANOMALY": 284.2281,
    "EPHEMERIS_TYPE": 0,
    "CLASSIFICATION_TYPE": "U",
    "NORAD_CAT_ID": 65631,
    "ELEMENT_SET_NO": 999,
    "REV_AT_EPOCH": 951,
    "BSTAR": 0.0019197,
    "MEAN_MOTION_DOT": 0.00077215,
    "MEAN_MOTION_DDOT": 0.0,
    "TLE_LINE1": "1 65631U 25210K   25314.81180106  .00077215  00000+0  19197-2 0  9991",
    "TLE_LINE2": "2 65631  53.1581 139.7315 0001108  75.8848 284.2281 15.39637738  9519",
    "COMMENT": "Grouped by shell and plane from TLE"
  },
  {
    "OBJECT_NAME": "STARLINK-35117",
    "OBJECT_ID": "25210L",
    "EPOCH": "2025-11-11T08:00:03.000384",
    "MEAN_MOTION": 15.33176053,
    "ECCENTRICITY": 6.29e-05,
    "INCLINATION": 53.1598,
    "RA_OF_ASC_NODE": 137.1495,
    "ARG_OF_PERICENTER": 137.39,
    "MEAN_ANOMALY": 298.3851,
    "EPHEMERIS_TYPE": 0,
    "CLASSIFICATION_TYPE": "U",
    "NORAD_CAT_ID": 65632,
    "ELEMENT_SET_NO": 999,
    "REV_AT_EPOCH": 589,
    "BSTAR": 0.0,
    "MEAN_MOTION_DOT": -0.0173203,
    "MEAN_MOTION_DDOT": 0.0,
    "TLE_LINE1": "1 65632U 25210L   25315.33336806 -.01732030  00000+0 -58981-1 0  9999",
    "TLE_LINE2": "2 65632  53.1598 137.1495 0000629 137.3900 298.3851 15.33176053  5897",
    "COMMENT": "Grouped by shell and plane from TLE"
  },
  {
    "OBJECT_NAME": "STARLINK-35103",
    "OBJECT_ID": "25210M",
    "EPOCH": "2025-11-10T21:15:50.499360",
    "MEAN_MOTION": 15.39631354,
    "ECCENTRICITY": 9.52e-05,
    "INCLINATION": 53.1582,
    "RA_OF_ASC_NODE": 139.4812,
    "ARG_OF_PERICENTER": 33.3248,
    "MEAN_ANOMALY": 326.7817,
    "EPHEMERIS_TYPE": 0,
    "CLASSIFICATION_TYPE": "U",
    "NORAD_CAT_ID": 65633,
    "ELEMENT_SET_NO": 999,
    "REV_AT_EPOCH": 953,
    "BSTAR": 0.0011575000000000001,
    "MEAN_MOTION_DOT": 0.00046198,
    "MEAN_MOTION_DDOT": 0.0,
    "TLE_LINE1": "1 65633U 25210M   25314.88600115  .00046198  00000+0  11575-2 0  9995",
    "TLE_LINE2": "2 65633  53.1582 139.4812 0000952  33.3248 326.7817 15.39631354  9537",
    "COMMENT": "Grouped by shell and plane from TLE"
  },
  {
    "OBJECT_NAME": "STARLINK-35123",
    "OBJECT_ID": "25210N",
    "EPOCH": "2025-11-11T04:11:27.951648",
    "MEAN_MOTION": 15.31204902,
    "ECCENTRICITY": 1.93e-05,
    "INCLINATION": 53.16,
    "RA_OF_ASC_NODE": 137.7273,
    "ARG_OF_PERICENTER": 171.2707,
    "MEAN_ANOMALY": 188.8297,
    "EPHEMERIS_TYPE": 0,
    "CLASSIFICATION_TYPE": "U",
    "NORAD_CAT_ID": 65634,
    "ELEMENT_SET_NO": 999,
    "REV_AT_EPOCH": 958,
    "BSTAR": 0.0,
    "MEAN_MOTION_DOT": -0.00254888,
    "MEAN_MOTION_DDOT": 0.0,
    "TLE_LINE1": "1 65634U 25210N   25315.17462907 -.00254888  00000+0 -86178-2 0  9994",
    "TLE_LINE2": "2 65634  53.1600 137.7273 0000193 171.2707 188.8297 15.31204902  9581",
    "COMMENT": "Grouped by shell and plane from TLE"
  }
]